NORAD_CAT_ID,OBJECT_NAME,OBJECT_TYPE,EPOCH,MEAN_MOTION,ECCENTRICITY,INCLINATION,RA_OF_ASC_NODE,ARG_OF_PERICENTER,MEAN_ANOMALY,BSTAR,MEAN_MOTION_DOT,MEAN_MOTION_DDOT,TLE_LINE0,TLE_LINE1,TLE_LINE2,SEMIMAJOR_AXIS,PERIOD,APOGEE,PERIGEE,DECAYED
52836.0,STARLINK-4043,PAYLOAD,2022-08-30 14:00:01,15.08869565,0.0001524,53.2174,52.1661,67.7246,328.4814,-0.0022820999999999,-0.00036453,0.0,0 STARLINK-4043,1 52836U 22062G   22242.58334491 -.00036453  00000-0 -22821-2 0  9995,2 52836  53.2174  52.1661 0001524  67.7246 328.4814 15.08869565  1300,6917.79,95.436,540.7090000000002,538.601,0.0
52836.0,STARLINK-4043,PAYLOAD,2022-08-30 22:00:00,15.08819422,0.0001553,53.2171,50.67100000000001,59.56100000000001,348.2685,0.0013698,0.00021567,0.0,0 STARLINK-4043,1 52836U 22062G   22242.91667824  .00021567  00000-0  13698-2 0  9991,2 52836  53.2171  50.6710 0001553  59.5610 348.2685 15.08819422  1304,6917.943,95.439,540.883,538.734,0.0
52836.0,STARLINK-4043,PAYLOAD,2022-08-31 14:00:01,15.08851175,0.0001455,53.2172,47.6772,67.1207,3.865,-0.0016925999999999,-0.00027133,0.0,0 STARLINK-4043,1 52836U 22062G   22243.58334491 -.00027133  00000-0 -16926-2 0  9990,2 52836  53.2172  47.6772 0001455  67.1207   3.8650 15.08851175  1304,6917.846,95.437,540.7180000000002,538.705,0.0
52836.0,STARLINK-4043,PAYLOAD,2022-08-31 22:00:00,15.088165,0.0001523,53.2169,46.1821,58.8657,23.721,0.002827,0.00044962,0.0,0 STARLINK-4043,1 52836U 22062G   22243.91667824  .00044962  00000-0  28270-2 0  9998,2 52836  53.2169  46.1821 0001523  58.8657  23.7210 15.08816500  1307,6917.9519999999975,95.439,540.871,538.764,0.0
52836.0,STARLINK-4043,PAYLOAD,2022-09-01 06:00:00,15.08826745,0.0001396999999999,53.217,44.684,66.7085,27.4719,0.0016339,0.00025802,0.0,0 STARLINK-4043,1 52836U 22062G   22244.25001157  .00025802  00000-0  16339-2 0  9992,2 52836  53.2170  44.6840 0001397  66.7085  27.4719 15.08826745 11729,6917.920999999999,95.438,540.752,538.819,0.0
52836.0,STARLINK-4043,PAYLOAD,2022-09-01 14:00:01,15.08869578,0.0001468,53.2171,43.1883,65.8561,39.9728,-0.0027136,-0.00043251,0.0,0 STARLINK-4043,1 52836U 22062G   22244.58335648 -.00043251  00000-0 -27136-2 0  9990,2 52836  53.2171  43.1883 0001468  65.8561  39.9728 15.08869578  1301,6917.79,95.436,540.6709999999998,538.639,0.0
52836.0,STARLINK-4043,PAYLOAD,2022-09-01 22:00:00,15.08817926,0.0001471,53.2169,41.6931,56.0605,61.3245,0.0014333,0.00022583,0.0,0 STARLINK-4043,1 52836U 22062G   22244.91667824  .00022583  00000-0  14333-2 0  9999,2 52836  53.2169  41.6931 0001471  56.0605  61.3245 15.08817926 11821,6917.948,95.439,540.83,538.795,0.0
52836.0,STARLINK-4043,PAYLOAD,2022-09-02 14:00:01,15.08849093,0.0001437,53.2172,38.6994,62.7431,77.7978,-0.0016730999999999,-0.00026823,0.0,0 STARLINK-4043,1 52836U 22062G   22245.58334491 -.00026823  00000-0 -16731-2 0  9991,2 52836  53.2172  38.6994 0001437  62.7431  77.7978 15.08849093  1309,6917.853,95.437,540.712,538.724,0.0
52836.0,STARLINK-4043,PAYLOAD,2022-09-02 22:00:01,15.08822691,0.0001512,53.2171,37.204,54.3858,97.8151,0.0024548,0.00038978,0.0,0 STARLINK-4043,1 52836U 22062G   22245.91668981  .00038978  00000-0  24548-2 0  9999,2 52836  53.2171  37.2040 0001512  54.3858  97.8151 15.08822691  1300,6917.933000000001,95.439,540.844,538.752,0.0
52836.0,STARLINK-4043,PAYLOAD,2022-09-03 00:00:00,15.088501999999998,0.0001483,53.2171,36.8295,55.6041,189.4241,-0.00080999,-0.00013159,0.0,0 STARLINK-4043,1 52836U 22062G   22246.00001157 -.00013159  00000-0 -80999-3 0  9995,2 52836  53.2171  36.8295 0001483  55.6041 189.4241 15.08850200 11982,6917.849,95.437,540.74,538.688,0.0
52836.0,STARLINK-4043,PAYLOAD,2022-09-03 14:00:01,15.08874518,0.0001431,53.2176,34.2104,59.3486,115.9837,-0.0040666,-0.00064489,0.0,0 STARLINK-4043,1 52836U 22062G   22246.58334491 -.00064489  00000-0 -40666-2 0  9996,2 52836  53.2176  34.2104 0001431  59.3486 115.9837 15.08874518  1303,6917.775,95.435,540.63,538.65,0.0
52836.0,STARLINK-4043,PAYLOAD,2022-09-03 22:00:00,15.08824651,0.000147,53.2175,32.7149,50.6313,136.3118,0.0022174,0.00035163,0.0,0 STARLINK-4043,1 52836U 22062G   22246.91667824  .00035163  00000-0  22174-2 0  9991,2 52836  53.2175  32.7149 0001470  50.6313 136.3118 15.08824651  1302,6917.927,95.439,540.809,538.775,0.0
52836.0,STARLINK-4043,PAYLOAD,2022-09-04 14:00:01,15.08877857,0.0001378,53.2179,29.7213,54.7354,155.467,-0.0036314,-0.00057678,0.0,0 STARLINK-4043,1 52836U 22062G   22247.58335648 -.00057678  00000-0 -36314-2 0  9999,2 52836  53.2179  29.7213 0001378  54.7354 155.4670 15.08877857 12225,6917.765,95.435,540.5830000000002,538.6759999999998,0.0
52836.0,STARLINK-4043,PAYLOAD,2022-09-04 20:00:01,15.08825515,0.0001460999999999,53.2179,28.6,47.1746,81.6863,0.0024384,0.00038717,0.0,0 STARLINK-4043,1 52836U 22062G   22247.83334491  .00038717  00000-0  24384-2 0  9997,2 52836  53.2179  28.6000 0001461  47.1746  81.6863 15.08825515  1306,6917.925,95.438,540.8,538.779,0.0
52836.0,STARLINK-4043,PAYLOAD,2022-09-05 06:00:00,15.08808019,0.0001331999999999,53.218,26.7274,57.0923,176.2749,0.0035516999999999,0.00056642,0.0,0 STARLINK-4043,1 52836U 22062G   22248.25001157  .00056642  00000-0  35517-2 0  9991,2 52836  53.2180  26.7274 0001332  57.0923 176.2749 15.08808019 12322,6917.978,95.44,540.765,538.922,0.0
52836.0,STARLINK-4043,PAYLOAD,2022-09-05 14:00:01,15.08864835,0.0001488,53.2181,25.2323,55.343,189.6022,-0.0024276,-0.00038742,0.0,0 STARLINK-4043,1 52836U 22062G   22248.58334491 -.00038742  00000-0 -24276-2 0  9990,2 52836  53.2181  25.2323 0001488  55.3430 189.6022 15.08864835  1304,6917.804,95.436,540.6990000000002,538.64,0.0
52836.0,STARLINK-4043,PAYLOAD,2022-09-05 20:00:01,15.08834331,0.0001626999999999,53.218,24.1107,51.8718,111.783,-0.0014047,-0.00022571,0.0,0 STARLINK-4043,1 52836U 22062G   22248.83334491 -.00022571  00000-0 -14047-2 0  9996,2 52836  53.2180  24.1107 0001627  51.8718 111.7830 15.08834331 12411,6917.898,95.438,540.888,538.637,0.0
52836.0,STARLINK-4043,PAYLOAD,2022-09-05 22:00:00,15.08842607,0.0001629,53.2178,23.7363,52.877,203.672,-0.0033732,-0.00053577,0.0,0 STARLINK-4043,1 52836U 22062G   22248.91667824 -.00053577  00000-0 -33732-2 0  9996,2 52836  53.2178  23.7363 0001629  52.8770 203.6720 15.08842607  1308,6917.871999999999,95.437,540.864,538.61,0.0
52836.0,STARLINK-4043,PAYLOAD,2022-09-06 14:00:01,15.08819245,0.0001655,53.218,20.7433,59.8839,219.7878,-0.00069419,-0.00011313,0.0,0 STARLINK-4043,1 52836U 22062G   22249.58334491 -.00011313  00000-0 -69419-3 0  9995,2 52836  53.2180  20.7433 0001655  59.8839 219.7878 15.08819245  1302,6917.944,95.439,540.9540000000002,538.664,0.0
52836.0,STARLINK-4043,PAYLOAD,2022-09-06 22:00:00,15.08825192,0.0001668,53.2177,19.2472,55.7744,235.4588,0.00016206,2.291e-05,0.0,0 STARLINK-4043,1 52836U 22062G   22249.91667824  .00002291  00000-0  16206-3 0  9990,2 52836  53.2177  19.2472 0001668  55.7744 235.4588 15.08825192 12570,6917.926,95.438,540.945,538.637,0.0
52836.0,STARLINK-4043,PAYLOAD,2022-09-07 14:00:01,15.08845027,0.0001641999999999,53.2178,16.2545,59.7974,254.5966,-0.00079515,-0.00012922,0.0,0 STARLINK-4043,1 52836U 22062G   22250.58334491 -.00012922  00000-0 -79515-3 0  9992,2 52836  53.2178  16.2545 0001642  59.7974 254.5966 15.08845027  1300,6917.865,95.437,540.866,538.594,0.0
52836.0,STARLINK-4043,PAYLOAD,2022-09-07 22:00:00,15.08866544,0.0001599,53.2174,14.7581,55.2826,270.7011,-0.0030764,-0.00048952,0.0,0 STARLINK-4043,1 52836U 22062G   22250.91667824 -.00048952  00000-0 -30764-2 0  9992,2 52836  53.2174  14.7581 0001599  55.2826 270.7011 15.08866544  1305,6917.799,95.436,540.77,538.558,0.0
52836.0,STARLINK-4043,PAYLOAD,2022-09-08 06:00:00,15.08806562,0.0001438,53.2175,13.2602,62.5819,275.0247,0.0036328,0.0005795,0.0,0 STARLINK-4043,1 52836U 22062G   22251.25001157  .00057950  00000-0  36328-2 0  9999,2 52836  53.2175  13.2602 0001438  62.5819 275.0247 15.08806562 12786,6917.983,95.44,540.842,538.8530000000002,0.0
52836.0,STARLINK-4043,PAYLOAD,2022-09-08 14:00:01,15.08844182,0.0001578,53.2176,11.7655,57.3047,291.8786,-0.00066937,-0.00010926,0.0,0 STARLINK-4043,1 52836U 22062G   22251.58334491 -.00010926  00000-0 -66937-3 0  9999,2 52836  53.2176  11.7655 0001578  57.3047 291.8786 15.08844182  1308,6917.868,95.437,540.8240000000002,538.641,0.0
52836.0,STARLINK-4043,PAYLOAD,2022-09-08 22:00:00,15.08874043,0.0001612,53.2173,10.2689,53.8154,306.9633,-0.0033003999999999,-0.0005248,0.0,0 STARLINK-4043,1 52836U 22062G   22251.91667824 -.00052480  00000-0 -33004-2 0  9994,2 52836  53.2173  10.2689 0001612  53.8154 306.9633 15.08874043  1314,6917.776,95.435,540.756,538.526,0.0
52836.0,STARLINK-4043,PAYLOAD,2022-09-09 14:00:01,15.08861151,0.0001693,53.2176,7.2765,56.9169,327.0671,-0.0021947,-0.00035067,0.0,0 STARLINK-4043,1 52836U 22062G   22252.58334491 -.00035067  00000-0 -21947-2 0  9994,2 52836  53.2176   7.2765 0001693  56.9169 327.0671 15.08861151  1308,6917.816,95.436,540.852,538.51,0.0
52836.0,STARLINK-4043,PAYLOAD,2022-09-09 22:00:00,15.08846295,0.000164,53.2176,5.7799,52.6273,342.962,-0.0012514,-0.00020152,0.0,0 STARLINK-4043,1 52836U 22062G   22252.91667824 -.00020152  00000-0 -12514-2 0  9999,2 52836  53.2176   5.7799 0001640  52.6273 342.9620 15.08846295  1301,6917.861,95.437,540.861,538.592,0.0
52836.0,STARLINK-4043,PAYLOAD,2022-09-10 06:00:02,15.0883618,0.0001593,53.2178,4.2821,60.008,347.2449,0.00049795,7.645e-05,0.0,0 STARLINK-4043,1 52836U 22062G   22253.25002315  .00007645  00000-0  49795-3 0  9997,2 52836  53.2178   4.2821 0001593  60.0080 347.2449 15.08836180 13086,6917.892,95.438,540.859,538.655,0.0
52836.0,STARLINK-4043,PAYLOAD,2022-09-10 14:00:01,15.0882957,0.0001773,53.2179,2.7877,55.8882,2.8956,-0.00042759,-7.085e-05,0.0,0 STARLINK-4043,1 52836U 22062G   22253.58334491 -.00007085  00000-0 -42759-3 0  9999,2 52836  53.2179   2.7877 0001773  55.8882   2.8956 15.08829570  1307,6917.9119999999975,95.438,541.004,538.5509999999998,0.0
